<?xml version="1.0" encoding="UTF-8"?>
<gpx version="1.1" creator="2026-routes" xmlns="http://www.topografix.com/GPX/1/1">
  <metadata>
    <name>第五天路線(10/15)</name>
    <desc>第五天路線(10/15)</desc>
  </metadata>
  <trk>
    <name>Day 5 第五天路線(10/15)</name>
    <trkseg>
      <trkpt lat="26.125690" lon="127.756440"></trkpt>
      <trkpt lat="26.125680" lon="127.756430"></trkpt>
      <trkpt lat="26.125670" lon="127.756400"></trkpt>
      <trkpt lat="26.125640" lon="127.756350"></trkpt>
      <trkpt lat="26.125480" lon="127.756180"></trkpt>
      <trkpt lat="26.125450" lon="127.756160"></trkpt>
      <trkpt lat="26.125370" lon="127.756060"></trkpt>
      <trkpt lat="26.125360" lon="127.756030"></trkpt>
      <trkpt lat="26.125240" lon="127.755810"></trkpt>
      <trkpt lat="26.125210" lon="127.755730"></trkpt>
      <trkpt lat="26.125190" lon="127.755640"></trkpt>
      <trkpt lat="26.125150" lon="127.755520"></trkpt>
      <trkpt lat="26.125260" lon="127.755390"></trkpt>
      <trkpt lat="26.125280" lon="127.755340"></trkpt>
      <trkpt lat="26.125410" lon="127.755140"></trkpt>
      <trkpt lat="26.125620" lon="127.754770"></trkpt>
      <trkpt lat="26.125730" lon="127.754600"></trkpt>
      <trkpt lat="26.125800" lon="127.754520"></trkpt>
      <trkpt lat="26.125850" lon="127.754510"></trkpt>
      <trkpt lat="26.127400" lon="127.754580"></trkpt>
      <trkpt lat="26.127650" lon="127.754580"></trkpt>
      <trkpt lat="26.127690" lon="127.753580"></trkpt>
      <trkpt lat="26.127680" lon="127.753430"></trkpt>
      <trkpt lat="26.127680" lon="127.753310"></trkpt>
      <trkpt lat="26.127670" lon="127.753170"></trkpt>
      <trkpt lat="26.127700" lon="127.752430"></trkpt>
      <trkpt lat="26.127700" lon="127.751970"></trkpt>
      <trkpt lat="26.127740" lon="127.750720"></trkpt>
      <trkpt lat="26.127750" lon="127.750610"></trkpt>
      <trkpt lat="26.127750" lon="127.750450"></trkpt>
      <trkpt lat="26.127720" lon="127.750110"></trkpt>
      <trkpt lat="26.127700" lon="127.750010"></trkpt>
      <trkpt lat="26.127660" lon="127.749890"></trkpt>
      <trkpt lat="26.127560" lon="127.749700"></trkpt>
      <trkpt lat="26.127530" lon="127.749630"></trkpt>
      <trkpt lat="26.127490" lon="127.749560"></trkpt>
      <trkpt lat="26.127280" lon="127.749320"></trkpt>
      <trkpt lat="26.127170" lon="127.749170"></trkpt>
      <trkpt lat="26.126930" lon="127.748880"></trkpt>
      <trkpt lat="26.126770" lon="127.748720"></trkpt>
      <trkpt lat="26.126590" lon="127.748600"></trkpt>
      <trkpt lat="26.126530" lon="127.748570"></trkpt>
      <trkpt lat="26.126470" lon="127.748550"></trkpt>
      <trkpt lat="26.126430" lon="127.748530"></trkpt>
      <trkpt lat="26.126120" lon="127.748450"></trkpt>
      <trkpt lat="26.125430" lon="127.748330"></trkpt>
      <trkpt lat="26.125400" lon="127.748330"></trkpt>
      <trkpt lat="26.125070" lon="127.748280"></trkpt>
      <trkpt lat="26.125020" lon="127.748280"></trkpt>
      <trkpt lat="26.124980" lon="127.748290"></trkpt>
      <trkpt lat="26.124930" lon="127.748290"></trkpt>
      <trkpt lat="26.124900" lon="127.748300"></trkpt>
      <trkpt lat="26.124870" lon="127.748300"></trkpt>
      <trkpt lat="26.124420" lon="127.748430"></trkpt>
      <trkpt lat="26.124330" lon="127.748450"></trkpt>
      <trkpt lat="26.124270" lon="127.748470"></trkpt>
      <trkpt lat="26.124220" lon="127.748470"></trkpt>
      <trkpt lat="26.124160" lon="127.748480"></trkpt>
      <trkpt lat="26.124100" lon="127.748470"></trkpt>
      <trkpt lat="26.124040" lon="127.748470"></trkpt>
      <trkpt lat="26.123990" lon="127.748460"></trkpt>
      <trkpt lat="26.123960" lon="127.748460"></trkpt>
      <trkpt lat="26.123870" lon="127.748430"></trkpt>
      <trkpt lat="26.123740" lon="127.748370"></trkpt>
      <trkpt lat="26.123470" lon="127.748190"></trkpt>
      <trkpt lat="26.123420" lon="127.748140"></trkpt>
      <trkpt lat="26.123400" lon="127.748130"></trkpt>
      <trkpt lat="26.123370" lon="127.748100"></trkpt>
      <trkpt lat="26.123360" lon="127.748080"></trkpt>
      <trkpt lat="26.123350" lon="127.748070"></trkpt>
      <trkpt lat="26.123340" lon="127.748040"></trkpt>
      <trkpt lat="26.123290" lon="127.747940"></trkpt>
      <trkpt lat="26.123270" lon="127.747880"></trkpt>
      <trkpt lat="26.123240" lon="127.747750"></trkpt>
      <trkpt lat="26.123230" lon="127.747630"></trkpt>
      <trkpt lat="26.123230" lon="127.747410"></trkpt>
      <trkpt lat="26.123240" lon="127.747360"></trkpt>
      <trkpt lat="26.123240" lon="127.746960"></trkpt>
      <trkpt lat="26.123260" lon="127.746810"></trkpt>
      <trkpt lat="26.123260" lon="127.746680"></trkpt>
      <trkpt lat="26.123370" lon="127.744980"></trkpt>
      <trkpt lat="26.123370" lon="127.744760"></trkpt>
      <trkpt lat="26.123360" lon="127.744700"></trkpt>
      <trkpt lat="26.123300" lon="127.744520"></trkpt>
      <trkpt lat="26.123270" lon="127.744470"></trkpt>
      <trkpt lat="26.123140" lon="127.744320"></trkpt>
      <trkpt lat="26.123030" lon="127.744230"></trkpt>
      <trkpt lat="26.122660" lon="127.743960"></trkpt>
      <trkpt lat="26.122540" lon="127.743860"></trkpt>
      <trkpt lat="26.122020" lon="127.743500"></trkpt>
      <trkpt lat="26.121840" lon="127.743400"></trkpt>
      <trkpt lat="26.121680" lon="127.743290"></trkpt>
      <trkpt lat="26.121620" lon="127.743220"></trkpt>
      <trkpt lat="26.121560" lon="127.743170"></trkpt>
      <trkpt lat="26.121410" lon="127.742990"></trkpt>
      <trkpt lat="26.121220" lon="127.742730"></trkpt>
      <trkpt lat="26.121050" lon="127.742410"></trkpt>
      <trkpt lat="26.121030" lon="127.742380"></trkpt>
      <trkpt lat="26.120890" lon="127.742100"></trkpt>
      <trkpt lat="26.120570" lon="127.741370"></trkpt>
      <trkpt lat="26.120540" lon="127.741330"></trkpt>
      <trkpt lat="26.120400" lon="127.741090"></trkpt>
      <trkpt lat="26.120250" lon="127.740920"></trkpt>
      <trkpt lat="26.120200" lon="127.740850"></trkpt>
      <trkpt lat="26.119180" lon="127.739660"></trkpt>
      <trkpt lat="26.119030" lon="127.739460"></trkpt>
      <trkpt lat="26.118910" lon="127.739270"></trkpt>
      <trkpt lat="26.118870" lon="127.739170"></trkpt>
      <trkpt lat="26.118820" lon="127.739070"></trkpt>
      <trkpt lat="26.118630" lon="127.738620"></trkpt>
      <trkpt lat="26.118570" lon="127.738500"></trkpt>
      <trkpt lat="26.118330" lon="127.737920"></trkpt>
      <trkpt lat="26.118330" lon="127.737900"></trkpt>
      <trkpt lat="26.118270" lon="127.737800"></trkpt>
      <trkpt lat="26.118170" lon="127.737550"></trkpt>
      <trkpt lat="26.118090" lon="127.737290"></trkpt>
      <trkpt lat="26.118050" lon="127.737080"></trkpt>
      <trkpt lat="26.118030" lon="127.736910"></trkpt>
      <trkpt lat="26.118000" lon="127.736120"></trkpt>
      <trkpt lat="26.117940" lon="127.735630"></trkpt>
      <trkpt lat="26.117830" lon="127.735120"></trkpt>
      <trkpt lat="26.117400" lon="127.733590"></trkpt>
      <trkpt lat="26.117310" lon="127.733320"></trkpt>
      <trkpt lat="26.117270" lon="127.733250"></trkpt>
      <trkpt lat="26.117230" lon="127.733140"></trkpt>
      <trkpt lat="26.117090" lon="127.732920"></trkpt>
      <trkpt lat="26.116980" lon="127.732780"></trkpt>
      <trkpt lat="26.116790" lon="127.732620"></trkpt>
      <trkpt lat="26.116640" lon="127.732510"></trkpt>
      <trkpt lat="26.116560" lon="127.732480"></trkpt>
      <trkpt lat="26.116470" lon="127.732430"></trkpt>
      <trkpt lat="26.116280" lon="127.732360"></trkpt>
      <trkpt lat="26.116200" lon="127.732320"></trkpt>
      <trkpt lat="26.116090" lon="127.732290"></trkpt>
      <trkpt lat="26.116040" lon="127.732260"></trkpt>
      <trkpt lat="26.115920" lon="127.732220"></trkpt>
      <trkpt lat="26.115690" lon="127.732100"></trkpt>
      <trkpt lat="26.115530" lon="127.731990"></trkpt>
      <trkpt lat="26.115400" lon="127.731860"></trkpt>
      <trkpt lat="26.114230" lon="127.730480"></trkpt>
      <trkpt lat="26.113300" lon="127.729180"></trkpt>
      <trkpt lat="26.113200" lon="127.729010"></trkpt>
      <trkpt lat="26.112930" lon="127.728630"></trkpt>
      <trkpt lat="26.112890" lon="127.728550"></trkpt>
      <trkpt lat="26.112830" lon="127.728460"></trkpt>
      <trkpt lat="26.112720" lon="127.728250"></trkpt>
      <trkpt lat="26.112520" lon="127.727790"></trkpt>
      <trkpt lat="26.112450" lon="127.727690"></trkpt>
      <trkpt lat="26.112320" lon="127.727450"></trkpt>
      <trkpt lat="26.112230" lon="127.727330"></trkpt>
      <trkpt lat="26.112160" lon="127.727250"></trkpt>
      <trkpt lat="26.111920" lon="127.727030"></trkpt>
      <trkpt lat="26.111310" lon="127.726580"></trkpt>
      <trkpt lat="26.111190" lon="127.726480"></trkpt>
      <trkpt lat="26.111090" lon="127.726390"></trkpt>
      <trkpt lat="26.110790" lon="127.726080"></trkpt>
      <trkpt lat="26.110030" lon="127.725240"></trkpt>
      <trkpt lat="26.109820" lon="127.725050"></trkpt>
      <trkpt lat="26.109600" lon="127.724900"></trkpt>
      <trkpt lat="26.109390" lon="127.724790"></trkpt>
      <trkpt lat="26.108890" lon="127.724590"></trkpt>
      <trkpt lat="26.108700" lon="127.724500"></trkpt>
      <trkpt lat="26.108510" lon="127.724360"></trkpt>
      <trkpt lat="26.108390" lon="127.724230"></trkpt>
      <trkpt lat="26.108360" lon="127.724190"></trkpt>
      <trkpt lat="26.108290" lon="127.724070"></trkpt>
      <trkpt lat="26.108150" lon="127.723730"></trkpt>
      <trkpt lat="26.107830" lon="127.722780"></trkpt>
      <trkpt lat="26.107780" lon="127.722700"></trkpt>
      <trkpt lat="26.107760" lon="127.722640"></trkpt>
      <trkpt lat="26.107710" lon="127.722530"></trkpt>
      <trkpt lat="26.107690" lon="127.722470"></trkpt>
      <trkpt lat="26.107580" lon="127.722260"></trkpt>
      <trkpt lat="26.107430" lon="127.722050"></trkpt>
      <trkpt lat="26.107340" lon="127.721960"></trkpt>
      <trkpt lat="26.107300" lon="127.721940"></trkpt>
      <trkpt lat="26.107130" lon="127.721820"></trkpt>
      <trkpt lat="26.107040" lon="127.721770"></trkpt>
      <trkpt lat="26.106940" lon="127.721740"></trkpt>
      <trkpt lat="26.106900" lon="127.721720"></trkpt>
      <trkpt lat="26.106860" lon="127.721720"></trkpt>
      <trkpt lat="26.106770" lon="127.721700"></trkpt>
      <trkpt lat="26.106640" lon="127.721700"></trkpt>
      <trkpt lat="26.106430" lon="127.721740"></trkpt>
      <trkpt lat="26.106420" lon="127.721740"></trkpt>
      <trkpt lat="26.106170" lon="127.721830"></trkpt>
      <trkpt lat="26.106090" lon="127.721880"></trkpt>
      <trkpt lat="26.106060" lon="127.721890"></trkpt>
      <trkpt lat="26.105390" lon="127.722280"></trkpt>
      <trkpt lat="26.105260" lon="127.722320"></trkpt>
      <trkpt lat="26.105240" lon="127.722320"></trkpt>
      <trkpt lat="26.105180" lon="127.722340"></trkpt>
      <trkpt lat="26.105000" lon="127.722370"></trkpt>
      <trkpt lat="26.104520" lon="127.722360"></trkpt>
      <trkpt lat="26.102870" lon="127.722260"></trkpt>
      <trkpt lat="26.102250" lon="127.722250"></trkpt>
      <trkpt lat="26.101670" lon="127.722220"></trkpt>
      <trkpt lat="26.101490" lon="127.722220"></trkpt>
      <trkpt lat="26.100340" lon="127.722160"></trkpt>
      <trkpt lat="26.099900" lon="127.722110"></trkpt>
      <trkpt lat="26.099600" lon="127.722040"></trkpt>
      <trkpt lat="26.099270" lon="127.721910"></trkpt>
      <trkpt lat="26.099240" lon="127.721890"></trkpt>
      <trkpt lat="26.099220" lon="127.721960"></trkpt>
      <trkpt lat="26.099190" lon="127.722010"></trkpt>
      <trkpt lat="26.099140" lon="127.722130"></trkpt>
      <trkpt lat="26.099090" lon="127.722180"></trkpt>
      <trkpt lat="26.099070" lon="127.722190"></trkpt>
      <trkpt lat="26.098980" lon="127.722190"></trkpt>
      <trkpt lat="26.098900" lon="127.722180"></trkpt>
      <trkpt lat="26.098120" lon="127.722020"></trkpt>
      <trkpt lat="26.097190" lon="127.721730"></trkpt>
      <trkpt lat="26.096900" lon="127.722850"></trkpt>
      <trkpt lat="26.096720" lon="127.722800"></trkpt>
      <trkpt lat="26.096710" lon="127.722800"></trkpt>
      <trkpt lat="26.095830" lon="127.722500"></trkpt>
      <trkpt lat="26.095810" lon="127.722490"></trkpt>
      <trkpt lat="26.095830" lon="127.722500"></trkpt>
      <trkpt lat="26.096710" lon="127.722800"></trkpt>
      <trkpt lat="26.096720" lon="127.722800"></trkpt>
      <trkpt lat="26.096900" lon="127.722850"></trkpt>
      <trkpt lat="26.097290" lon="127.721370"></trkpt>
      <trkpt lat="26.097300" lon="127.721310"></trkpt>
      <trkpt lat="26.097320" lon="127.721280"></trkpt>
      <trkpt lat="26.097340" lon="127.721210"></trkpt>
      <trkpt lat="26.097390" lon="127.721090"></trkpt>
      <trkpt lat="26.097510" lon="127.720890"></trkpt>
      <trkpt lat="26.097550" lon="127.720850"></trkpt>
      <trkpt lat="26.097650" lon="127.720730"></trkpt>
      <trkpt lat="26.097700" lon="127.720680"></trkpt>
      <trkpt lat="26.097730" lon="127.720640"></trkpt>
      <trkpt lat="26.097780" lon="127.720590"></trkpt>
      <trkpt lat="26.096960" lon="127.719650"></trkpt>
      <trkpt lat="26.096940" lon="127.719620"></trkpt>
      <trkpt lat="26.096680" lon="127.719340"></trkpt>
      <trkpt lat="26.096560" lon="127.719190"></trkpt>
      <trkpt lat="26.096430" lon="127.719050"></trkpt>
      <trkpt lat="26.096310" lon="127.718900"></trkpt>
      <trkpt lat="26.095990" lon="127.718550"></trkpt>
      <trkpt lat="26.095920" lon="127.718460"></trkpt>
      <trkpt lat="26.095100" lon="127.717510"></trkpt>
      <trkpt lat="26.095060" lon="127.717480"></trkpt>
      <trkpt lat="26.094910" lon="127.717300"></trkpt>
      <trkpt lat="26.094790" lon="127.717180"></trkpt>
      <trkpt lat="26.094360" lon="127.716570"></trkpt>
      <trkpt lat="26.094300" lon="127.716450"></trkpt>
      <trkpt lat="26.094130" lon="127.716040"></trkpt>
      <trkpt lat="26.094040" lon="127.715710"></trkpt>
      <trkpt lat="26.093970" lon="127.715300"></trkpt>
      <trkpt lat="26.093960" lon="127.714760"></trkpt>
      <trkpt lat="26.093990" lon="127.714470"></trkpt>
      <trkpt lat="26.094060" lon="127.714010"></trkpt>
      <trkpt lat="26.094060" lon="127.713950"></trkpt>
      <trkpt lat="26.094090" lon="127.713770"></trkpt>
      <trkpt lat="26.094100" lon="127.713590"></trkpt>
      <trkpt lat="26.094120" lon="127.713440"></trkpt>
      <trkpt lat="26.094120" lon="127.713180"></trkpt>
      <trkpt lat="26.094110" lon="127.713110"></trkpt>
      <trkpt lat="26.094110" lon="127.713030"></trkpt>
      <trkpt lat="26.094090" lon="127.712840"></trkpt>
      <trkpt lat="26.094050" lon="127.712610"></trkpt>
      <trkpt lat="26.094010" lon="127.712450"></trkpt>
      <trkpt lat="26.093950" lon="127.712120"></trkpt>
      <trkpt lat="26.093930" lon="127.712060"></trkpt>
      <trkpt lat="26.093900" lon="127.711830"></trkpt>
      <trkpt lat="26.093900" lon="127.711550"></trkpt>
      <trkpt lat="26.093910" lon="127.711530"></trkpt>
      <trkpt lat="26.093910" lon="127.711500"></trkpt>
      <trkpt lat="26.093940" lon="127.711330"></trkpt>
      <trkpt lat="26.093950" lon="127.711310"></trkpt>
      <trkpt lat="26.093980" lon="127.711200"></trkpt>
      <trkpt lat="26.093990" lon="127.711140"></trkpt>
      <trkpt lat="26.094200" lon="127.710450"></trkpt>
      <trkpt lat="26.094200" lon="127.710430"></trkpt>
      <trkpt lat="26.094280" lon="127.710240"></trkpt>
      <trkpt lat="26.094330" lon="127.710150"></trkpt>
      <trkpt lat="26.094380" lon="127.710090"></trkpt>
      <trkpt lat="26.094380" lon="127.710080"></trkpt>
      <trkpt lat="26.094430" lon="127.710000"></trkpt>
      <trkpt lat="26.094560" lon="127.709850"></trkpt>
      <trkpt lat="26.094980" lon="127.709470"></trkpt>
      <trkpt lat="26.095160" lon="127.709270"></trkpt>
      <trkpt lat="26.095190" lon="127.709230"></trkpt>
      <trkpt lat="26.095240" lon="127.709140"></trkpt>
      <trkpt lat="26.095280" lon="127.709090"></trkpt>
      <trkpt lat="26.095320" lon="127.709020"></trkpt>
      <trkpt lat="26.095360" lon="127.708910"></trkpt>
      <trkpt lat="26.095390" lon="127.708850"></trkpt>
      <trkpt lat="26.095430" lon="127.708720"></trkpt>
      <trkpt lat="26.095470" lon="127.708550"></trkpt>
      <trkpt lat="26.095520" lon="127.708270"></trkpt>
      <trkpt lat="26.095550" lon="127.707950"></trkpt>
      <trkpt lat="26.095550" lon="127.707800"></trkpt>
      <trkpt lat="26.095530" lon="127.707520"></trkpt>
      <trkpt lat="26.095530" lon="127.707350"></trkpt>
      <trkpt lat="26.095550" lon="127.707250"></trkpt>
      <trkpt lat="26.095570" lon="127.707180"></trkpt>
      <trkpt lat="26.095590" lon="127.707130"></trkpt>
      <trkpt lat="26.095610" lon="127.707060"></trkpt>
      <trkpt lat="26.095630" lon="127.707030"></trkpt>
      <trkpt lat="26.095640" lon="127.706990"></trkpt>
      <trkpt lat="26.095660" lon="127.706960"></trkpt>
      <trkpt lat="26.095680" lon="127.706910"></trkpt>
      <trkpt lat="26.095720" lon="127.706870"></trkpt>
      <trkpt lat="26.095780" lon="127.706770"></trkpt>
      <trkpt lat="26.095810" lon="127.706730"></trkpt>
      <trkpt lat="26.095830" lon="127.706690"></trkpt>
      <trkpt lat="26.095860" lon="127.706650"></trkpt>
      <trkpt lat="26.095900" lon="127.706560"></trkpt>
      <trkpt lat="26.095960" lon="127.706330"></trkpt>
      <trkpt lat="26.095970" lon="127.706260"></trkpt>
      <trkpt lat="26.095970" lon="127.706090"></trkpt>
      <trkpt lat="26.095960" lon="127.706020"></trkpt>
      <trkpt lat="26.095950" lon="127.705820"></trkpt>
      <trkpt lat="26.095930" lon="127.705660"></trkpt>
      <trkpt lat="26.095930" lon="127.705580"></trkpt>
      <trkpt lat="26.095920" lon="127.705510"></trkpt>
      <trkpt lat="26.095920" lon="127.705460"></trkpt>
      <trkpt lat="26.095930" lon="127.705420"></trkpt>
      <trkpt lat="26.095930" lon="127.705340"></trkpt>
      <trkpt lat="26.095950" lon="127.705250"></trkpt>
      <trkpt lat="26.095950" lon="127.705210"></trkpt>
      <trkpt lat="26.096050" lon="127.704800"></trkpt>
      <trkpt lat="26.096070" lon="127.704740"></trkpt>
      <trkpt lat="26.096100" lon="127.704580"></trkpt>
      <trkpt lat="26.096100" lon="127.704540"></trkpt>
      <trkpt lat="26.096110" lon="127.704510"></trkpt>
      <trkpt lat="26.096110" lon="127.704470"></trkpt>
      <trkpt lat="26.096120" lon="127.704430"></trkpt>
      <trkpt lat="26.096120" lon="127.704190"></trkpt>
      <trkpt lat="26.096090" lon="127.703510"></trkpt>
      <trkpt lat="26.096090" lon="127.703250"></trkpt>
      <trkpt lat="26.096080" lon="127.703180"></trkpt>
      <trkpt lat="26.096070" lon="127.702980"></trkpt>
      <trkpt lat="26.096070" lon="127.702720"></trkpt>
      <trkpt lat="26.096060" lon="127.702700"></trkpt>
      <trkpt lat="26.096060" lon="127.702550"></trkpt>
      <trkpt lat="26.096020" lon="127.702270"></trkpt>
      <trkpt lat="26.096010" lon="127.702260"></trkpt>
      <trkpt lat="26.096010" lon="127.702230"></trkpt>
      <trkpt lat="26.095990" lon="127.702190"></trkpt>
      <trkpt lat="26.095980" lon="127.702140"></trkpt>
      <trkpt lat="26.095920" lon="127.702010"></trkpt>
      <trkpt lat="26.095890" lon="127.701970"></trkpt>
      <trkpt lat="26.095870" lon="127.701930"></trkpt>
      <trkpt lat="26.095810" lon="127.701840"></trkpt>
      <trkpt lat="26.095530" lon="127.701480"></trkpt>
      <trkpt lat="26.095470" lon="127.701390"></trkpt>
      <trkpt lat="26.095440" lon="127.701330"></trkpt>
      <trkpt lat="26.095410" lon="127.701290"></trkpt>
      <trkpt lat="26.095380" lon="127.701240"></trkpt>
      <trkpt lat="26.095280" lon="127.700980"></trkpt>
      <trkpt lat="26.094940" lon="127.699920"></trkpt>
      <trkpt lat="26.094920" lon="127.699890"></trkpt>
      <trkpt lat="26.094790" lon="127.699460"></trkpt>
      <trkpt lat="26.094760" lon="127.699230"></trkpt>
      <trkpt lat="26.094740" lon="127.698900"></trkpt>
      <trkpt lat="26.094740" lon="127.698760"></trkpt>
      <trkpt lat="26.094730" lon="127.698660"></trkpt>
      <trkpt lat="26.094730" lon="127.698040"></trkpt>
      <trkpt lat="26.094690" lon="127.696810"></trkpt>
      <trkpt lat="26.094680" lon="127.696710"></trkpt>
      <trkpt lat="26.094680" lon="127.695710"></trkpt>
      <trkpt lat="26.094700" lon="127.695320"></trkpt>
      <trkpt lat="26.094710" lon="127.695270"></trkpt>
      <trkpt lat="26.094710" lon="127.695190"></trkpt>
      <trkpt lat="26.095170" lon="127.692910"></trkpt>
      <trkpt lat="26.095260" lon="127.692600"></trkpt>
      <trkpt lat="26.095290" lon="127.692470"></trkpt>
      <trkpt lat="26.095530" lon="127.691680"></trkpt>
      <trkpt lat="26.095580" lon="127.691410"></trkpt>
      <trkpt lat="26.095810" lon="127.690630"></trkpt>
      <trkpt lat="26.095810" lon="127.690600"></trkpt>
      <trkpt lat="26.095820" lon="127.690540"></trkpt>
      <trkpt lat="26.095840" lon="127.690480"></trkpt>
      <trkpt lat="26.095840" lon="127.690380"></trkpt>
      <trkpt lat="26.095850" lon="127.690330"></trkpt>
      <trkpt lat="26.095840" lon="127.690280"></trkpt>
      <trkpt lat="26.095840" lon="127.690230"></trkpt>
      <trkpt lat="26.095440" lon="127.688290"></trkpt>
      <trkpt lat="26.095390" lon="127.688090"></trkpt>
      <trkpt lat="26.095380" lon="127.688010"></trkpt>
      <trkpt lat="26.095360" lon="127.687960"></trkpt>
      <trkpt lat="26.095330" lon="127.687830"></trkpt>
      <trkpt lat="26.095250" lon="127.687590"></trkpt>
      <trkpt lat="26.095230" lon="127.687550"></trkpt>
      <trkpt lat="26.095220" lon="127.687510"></trkpt>
      <trkpt lat="26.095050" lon="127.687110"></trkpt>
      <trkpt lat="26.095030" lon="127.687080"></trkpt>
      <trkpt lat="26.094910" lon="127.686820"></trkpt>
      <trkpt lat="26.094850" lon="127.686660"></trkpt>
      <trkpt lat="26.094800" lon="127.686550"></trkpt>
      <trkpt lat="26.094770" lon="127.686440"></trkpt>
      <trkpt lat="26.094770" lon="127.686420"></trkpt>
      <trkpt lat="26.094740" lon="127.686310"></trkpt>
      <trkpt lat="26.094740" lon="127.686280"></trkpt>
      <trkpt lat="26.094730" lon="127.686230"></trkpt>
      <trkpt lat="26.094730" lon="127.686000"></trkpt>
      <trkpt lat="26.094750" lon="127.685700"></trkpt>
      <trkpt lat="26.094850" lon="127.685090"></trkpt>
      <trkpt lat="26.095110" lon="127.683980"></trkpt>
      <trkpt lat="26.095190" lon="127.683740"></trkpt>
      <trkpt lat="26.095220" lon="127.683690"></trkpt>
      <trkpt lat="26.095270" lon="127.683580"></trkpt>
      <trkpt lat="26.095320" lon="127.683500"></trkpt>
      <trkpt lat="26.095340" lon="127.683450"></trkpt>
      <trkpt lat="26.095460" lon="127.683280"></trkpt>
      <trkpt lat="26.095550" lon="127.683100"></trkpt>
      <trkpt lat="26.095590" lon="127.683000"></trkpt>
      <trkpt lat="26.095600" lon="127.682950"></trkpt>
      <trkpt lat="26.095620" lon="127.682890"></trkpt>
      <trkpt lat="26.095820" lon="127.681780"></trkpt>
      <trkpt lat="26.095850" lon="127.681680"></trkpt>
      <trkpt lat="26.095860" lon="127.681590"></trkpt>
      <trkpt lat="26.095880" lon="127.681520"></trkpt>
      <trkpt lat="26.095900" lon="127.681480"></trkpt>
      <trkpt lat="26.095970" lon="127.681240"></trkpt>
      <trkpt lat="26.096280" lon="127.680350"></trkpt>
      <trkpt lat="26.096280" lon="127.680340"></trkpt>
      <trkpt lat="26.096410" lon="127.679960"></trkpt>
      <trkpt lat="26.096450" lon="127.679880"></trkpt>
      <trkpt lat="26.096490" lon="127.679770"></trkpt>
      <trkpt lat="26.096570" lon="127.679610"></trkpt>
      <trkpt lat="26.096630" lon="127.679510"></trkpt>
      <trkpt lat="26.096670" lon="127.679460"></trkpt>
      <trkpt lat="26.096700" lon="127.679410"></trkpt>
      <trkpt lat="26.096830" lon="127.679240"></trkpt>
      <trkpt lat="26.096920" lon="127.679150"></trkpt>
      <trkpt lat="26.096980" lon="127.679080"></trkpt>
      <trkpt lat="26.097100" lon="127.678970"></trkpt>
      <trkpt lat="26.097510" lon="127.678630"></trkpt>
      <trkpt lat="26.097770" lon="127.678390"></trkpt>
      <trkpt lat="26.098180" lon="127.678040"></trkpt>
      <trkpt lat="26.098310" lon="127.677960"></trkpt>
      <trkpt lat="26.098400" lon="127.677880"></trkpt>
      <trkpt lat="26.098670" lon="127.677700"></trkpt>
      <trkpt lat="26.098930" lon="127.677570"></trkpt>
      <trkpt lat="26.099220" lon="127.677440"></trkpt>
      <trkpt lat="26.099570" lon="127.677360"></trkpt>
      <trkpt lat="26.099720" lon="127.677340"></trkpt>
      <trkpt lat="26.100060" lon="127.677330"></trkpt>
      <trkpt lat="26.100470" lon="127.677380"></trkpt>
      <trkpt lat="26.100750" lon="127.677460"></trkpt>
      <trkpt lat="26.100940" lon="127.677530"></trkpt>
      <trkpt lat="26.101860" lon="127.678020"></trkpt>
      <trkpt lat="26.102220" lon="127.678170"></trkpt>
      <trkpt lat="26.102380" lon="127.678220"></trkpt>
      <trkpt lat="26.102560" lon="127.678260"></trkpt>
      <trkpt lat="26.102630" lon="127.678270"></trkpt>
      <trkpt lat="26.102740" lon="127.678270"></trkpt>
      <trkpt lat="26.102830" lon="127.678280"></trkpt>
      <trkpt lat="26.102950" lon="127.678280"></trkpt>
      <trkpt lat="26.102990" lon="127.678270"></trkpt>
      <trkpt lat="26.103080" lon="127.678270"></trkpt>
      <trkpt lat="26.103170" lon="127.678250"></trkpt>
      <trkpt lat="26.103200" lon="127.678250"></trkpt>
      <trkpt lat="26.103320" lon="127.678230"></trkpt>
      <trkpt lat="26.103410" lon="127.678200"></trkpt>
      <trkpt lat="26.103500" lon="127.678180"></trkpt>
      <trkpt lat="26.103730" lon="127.678090"></trkpt>
      <trkpt lat="26.104050" lon="127.677910"></trkpt>
      <trkpt lat="26.104290" lon="127.677720"></trkpt>
      <trkpt lat="26.104420" lon="127.677580"></trkpt>
      <trkpt lat="26.104480" lon="127.677530"></trkpt>
      <trkpt lat="26.104550" lon="127.677430"></trkpt>
      <trkpt lat="26.104610" lon="127.677360"></trkpt>
      <trkpt lat="26.104750" lon="127.677140"></trkpt>
      <trkpt lat="26.104810" lon="127.677060"></trkpt>
      <trkpt lat="26.105290" lon="127.676090"></trkpt>
      <trkpt lat="26.105620" lon="127.675490"></trkpt>
      <trkpt lat="26.105870" lon="127.675080"></trkpt>
      <trkpt lat="26.106440" lon="127.674250"></trkpt>
      <trkpt lat="26.106740" lon="127.673870"></trkpt>
      <trkpt lat="26.107410" lon="127.673080"></trkpt>
      <trkpt lat="26.107740" lon="127.672730"></trkpt>
      <trkpt lat="26.109670" lon="127.670550"></trkpt>
      <trkpt lat="26.109810" lon="127.670420"></trkpt>
      <trkpt lat="26.109850" lon="127.670360"></trkpt>
      <trkpt lat="26.110970" lon="127.669100"></trkpt>
      <trkpt lat="26.110990" lon="127.669040"></trkpt>
      <trkpt lat="26.111030" lon="127.669000"></trkpt>
      <trkpt lat="26.111120" lon="127.668890"></trkpt>
      <trkpt lat="26.111240" lon="127.668770"></trkpt>
      <trkpt lat="26.111280" lon="127.668740"></trkpt>
      <trkpt lat="26.111380" lon="127.668650"></trkpt>
      <trkpt lat="26.111460" lon="127.668590"></trkpt>
      <trkpt lat="26.111510" lon="127.668560"></trkpt>
      <trkpt lat="26.111660" lon="127.668450"></trkpt>
      <trkpt lat="26.111900" lon="127.668340"></trkpt>
      <trkpt lat="26.111940" lon="127.668330"></trkpt>
      <trkpt lat="26.112020" lon="127.668300"></trkpt>
      <trkpt lat="26.112260" lon="127.668230"></trkpt>
      <trkpt lat="26.112390" lon="127.668210"></trkpt>
      <trkpt lat="26.112680" lon="127.668190"></trkpt>
      <trkpt lat="26.113130" lon="127.668200"></trkpt>
      <trkpt lat="26.115480" lon="127.668420"></trkpt>
      <trkpt lat="26.115540" lon="127.668430"></trkpt>
      <trkpt lat="26.116290" lon="127.668480"></trkpt>
      <trkpt lat="26.116350" lon="127.668500"></trkpt>
      <trkpt lat="26.116950" lon="127.668530"></trkpt>
      <trkpt lat="26.117240" lon="127.668500"></trkpt>
      <trkpt lat="26.117520" lon="127.668500"></trkpt>
      <trkpt lat="26.118210" lon="127.668430"></trkpt>
      <trkpt lat="26.118470" lon="127.668390"></trkpt>
      <trkpt lat="26.119060" lon="127.668260"></trkpt>
      <trkpt lat="26.119720" lon="127.668060"></trkpt>
      <trkpt lat="26.120990" lon="127.667710"></trkpt>
      <trkpt lat="26.121100" lon="127.667670"></trkpt>
      <trkpt lat="26.121370" lon="127.667600"></trkpt>
      <trkpt lat="26.121420" lon="127.667580"></trkpt>
      <trkpt lat="26.121470" lon="127.667570"></trkpt>
      <trkpt lat="26.121740" lon="127.667490"></trkpt>
      <trkpt lat="26.121790" lon="127.667480"></trkpt>
      <trkpt lat="26.123990" lon="127.666850"></trkpt>
      <trkpt lat="26.124650" lon="127.666680"></trkpt>
      <trkpt lat="26.125060" lon="127.666540"></trkpt>
      <trkpt lat="26.125160" lon="127.666520"></trkpt>
      <trkpt lat="26.127490" lon="127.665850"></trkpt>
      <trkpt lat="26.127500" lon="127.665850"></trkpt>
      <trkpt lat="26.129560" lon="127.665260"></trkpt>
      <trkpt lat="26.129580" lon="127.665260"></trkpt>
      <trkpt lat="26.136330" lon="127.663340"></trkpt>
      <trkpt lat="26.136670" lon="127.663230"></trkpt>
      <trkpt lat="26.139420" lon="127.662460"></trkpt>
      <trkpt lat="26.139470" lon="127.662450"></trkpt>
      <trkpt lat="26.140000" lon="127.662300"></trkpt>
      <trkpt lat="26.140170" lon="127.662240"></trkpt>
      <trkpt lat="26.143180" lon="127.661370"></trkpt>
      <trkpt lat="26.143290" lon="127.661330"></trkpt>
      <trkpt lat="26.144040" lon="127.661110"></trkpt>
      <trkpt lat="26.144400" lon="127.661020"></trkpt>
      <trkpt lat="26.144450" lon="127.661000"></trkpt>
      <trkpt lat="26.144550" lon="127.660980"></trkpt>
      <trkpt lat="26.144890" lon="127.660870"></trkpt>
      <trkpt lat="26.145150" lon="127.660800"></trkpt>
      <trkpt lat="26.145230" lon="127.660770"></trkpt>
      <trkpt lat="26.146380" lon="127.660440"></trkpt>
      <trkpt lat="26.146420" lon="127.660420"></trkpt>
      <trkpt lat="26.146870" lon="127.660300"></trkpt>
      <trkpt lat="26.147990" lon="127.659960"></trkpt>
      <trkpt lat="26.148050" lon="127.659950"></trkpt>
      <trkpt lat="26.148080" lon="127.659940"></trkpt>
      <trkpt lat="26.148120" lon="127.659920"></trkpt>
      <trkpt lat="26.148210" lon="127.659900"></trkpt>
      <trkpt lat="26.148260" lon="127.659880"></trkpt>
      <trkpt lat="26.152660" lon="127.658590"></trkpt>
      <trkpt lat="26.153030" lon="127.658470"></trkpt>
      <trkpt lat="26.153430" lon="127.658360"></trkpt>
      <trkpt lat="26.154220" lon="127.658110"></trkpt>
      <trkpt lat="26.154260" lon="127.658090"></trkpt>
      <trkpt lat="26.154560" lon="127.658000"></trkpt>
      <trkpt lat="26.154570" lon="127.658000"></trkpt>
      <trkpt lat="26.155390" lon="127.657690"></trkpt>
      <trkpt lat="26.155750" lon="127.657540"></trkpt>
      <trkpt lat="26.155810" lon="127.657510"></trkpt>
      <trkpt lat="26.156080" lon="127.657400"></trkpt>
      <trkpt lat="26.156400" lon="127.657250"></trkpt>
      <trkpt lat="26.157030" lon="127.656920"></trkpt>
      <trkpt lat="26.157300" lon="127.656760"></trkpt>
      <trkpt lat="26.157600" lon="127.656560"></trkpt>
      <trkpt lat="26.157610" lon="127.656560"></trkpt>
      <trkpt lat="26.157760" lon="127.656470"></trkpt>
      <trkpt lat="26.157770" lon="127.656460"></trkpt>
      <trkpt lat="26.158080" lon="127.656250"></trkpt>
      <trkpt lat="26.158350" lon="127.656050"></trkpt>
      <trkpt lat="26.158530" lon="127.655930"></trkpt>
      <trkpt lat="26.159550" lon="127.655120"></trkpt>
      <trkpt lat="26.159700" lon="127.654990"></trkpt>
      <trkpt lat="26.159760" lon="127.654950"></trkpt>
      <trkpt lat="26.159850" lon="127.654860"></trkpt>
      <trkpt lat="26.159930" lon="127.654800"></trkpt>
      <trkpt lat="26.160590" lon="127.654230"></trkpt>
      <trkpt lat="26.160780" lon="127.654080"></trkpt>
      <trkpt lat="26.160870" lon="127.653990"></trkpt>
      <trkpt lat="26.161870" lon="127.653150"></trkpt>
      <trkpt lat="26.162310" lon="127.652810"></trkpt>
      <trkpt lat="26.162780" lon="127.652490"></trkpt>
      <trkpt lat="26.163010" lon="127.652350"></trkpt>
      <trkpt lat="26.163060" lon="127.652330"></trkpt>
      <trkpt lat="26.163340" lon="127.652170"></trkpt>
      <trkpt lat="26.163350" lon="127.652160"></trkpt>
      <trkpt lat="26.163610" lon="127.652040"></trkpt>
      <trkpt lat="26.163630" lon="127.652020"></trkpt>
      <trkpt lat="26.163970" lon="127.651880"></trkpt>
      <trkpt lat="26.164750" lon="127.651610"></trkpt>
      <trkpt lat="26.165290" lon="127.651500"></trkpt>
      <trkpt lat="26.165440" lon="127.651480"></trkpt>
      <trkpt lat="26.165480" lon="127.651470"></trkpt>
      <trkpt lat="26.165690" lon="127.651440"></trkpt>
      <trkpt lat="26.165930" lon="127.651420"></trkpt>
      <trkpt lat="26.166030" lon="127.651420"></trkpt>
      <trkpt lat="26.166120" lon="127.651410"></trkpt>
      <trkpt lat="26.166200" lon="127.651410"></trkpt>
      <trkpt lat="26.166290" lon="127.651400"></trkpt>
      <trkpt lat="26.166820" lon="127.651410"></trkpt>
      <trkpt lat="26.167220" lon="127.651440"></trkpt>
      <trkpt lat="26.167760" lon="127.651500"></trkpt>
      <trkpt lat="26.169210" lon="127.651700"></trkpt>
      <trkpt lat="26.169240" lon="127.651700"></trkpt>
      <trkpt lat="26.169320" lon="127.651710"></trkpt>
      <trkpt lat="26.169330" lon="127.651720"></trkpt>
      <trkpt lat="26.169390" lon="127.651720"></trkpt>
      <trkpt lat="26.169630" lon="127.651760"></trkpt>
      <trkpt lat="26.169670" lon="127.651760"></trkpt>
      <trkpt lat="26.171160" lon="127.651960"></trkpt>
      <trkpt lat="26.172520" lon="127.652190"></trkpt>
      <trkpt lat="26.172530" lon="127.652200"></trkpt>
      <trkpt lat="26.172770" lon="127.652240"></trkpt>
      <trkpt lat="26.172870" lon="127.652270"></trkpt>
      <trkpt lat="26.173090" lon="127.652320"></trkpt>
      <trkpt lat="26.173230" lon="127.652340"></trkpt>
      <trkpt lat="26.173320" lon="127.652370"></trkpt>
      <trkpt lat="26.173960" lon="127.652510"></trkpt>
      <trkpt lat="26.174090" lon="127.652550"></trkpt>
      <trkpt lat="26.175100" lon="127.652790"></trkpt>
      <trkpt lat="26.175150" lon="127.652770"></trkpt>
      <trkpt lat="26.175160" lon="127.652760"></trkpt>
      <trkpt lat="26.175250" lon="127.652750"></trkpt>
      <trkpt lat="26.175310" lon="127.652730"></trkpt>
      <trkpt lat="26.175340" lon="127.652680"></trkpt>
      <trkpt lat="26.175350" lon="127.652650"></trkpt>
      <trkpt lat="26.175350" lon="127.652620"></trkpt>
      <trkpt lat="26.175380" lon="127.652570"></trkpt>
      <trkpt lat="26.175370" lon="127.652310"></trkpt>
      <trkpt lat="26.175400" lon="127.652130"></trkpt>
      <trkpt lat="26.175230" lon="127.649660"></trkpt>
      <trkpt lat="26.175230" lon="127.649570"></trkpt>
      <trkpt lat="26.175200" lon="127.649070"></trkpt>
      <trkpt lat="26.175170" lon="127.647320"></trkpt>
      <trkpt lat="26.175020" lon="127.645610"></trkpt>
      <trkpt lat="26.175010" lon="127.645140"></trkpt>
      <trkpt lat="26.174550" lon="127.645140"></trkpt>
      <trkpt lat="26.174340" lon="127.645080"></trkpt>
      <trkpt lat="26.174220" lon="127.645000"></trkpt>
      <trkpt lat="26.174130" lon="127.644910"></trkpt>
      <trkpt lat="26.174100" lon="127.644870"></trkpt>
      <trkpt lat="26.173990" lon="127.644630"></trkpt>
      <trkpt lat="26.173760" lon="127.643850"></trkpt>
      <trkpt lat="26.173630" lon="127.643460"></trkpt>
      <trkpt lat="26.173580" lon="127.643260"></trkpt>
      <trkpt lat="26.173520" lon="127.643070"></trkpt>
      <trkpt lat="26.173510" lon="127.642970"></trkpt>
      <trkpt lat="26.173520" lon="127.642820"></trkpt>
      <trkpt lat="26.173530" lon="127.642770"></trkpt>
      <trkpt lat="26.173540" lon="127.642750"></trkpt>
      <trkpt lat="26.173540" lon="127.642730"></trkpt>
      <trkpt lat="26.173610" lon="127.642560"></trkpt>
      <trkpt lat="26.173660" lon="127.642490"></trkpt>
      <trkpt lat="26.173770" lon="127.642380"></trkpt>
      <trkpt lat="26.173880" lon="127.642300"></trkpt>
      <trkpt lat="26.173890" lon="127.642300"></trkpt>
      <trkpt lat="26.174880" lon="127.641680"></trkpt>
      <trkpt lat="26.174980" lon="127.641630"></trkpt>
      <trkpt lat="26.175290" lon="127.641430"></trkpt>
      <trkpt lat="26.175330" lon="127.641390"></trkpt>
      <trkpt lat="26.175360" lon="127.641370"></trkpt>
      <trkpt lat="26.175430" lon="127.641300"></trkpt>
      <trkpt lat="26.175560" lon="127.641130"></trkpt>
      <trkpt lat="26.175630" lon="127.641170"></trkpt>
      <trkpt lat="26.175680" lon="127.641190"></trkpt>
      <trkpt lat="26.175780" lon="127.641200"></trkpt>
      <trkpt lat="26.175810" lon="127.641190"></trkpt>
      <trkpt lat="26.175840" lon="127.641190"></trkpt>
      <trkpt lat="26.175860" lon="127.641180"></trkpt>
      <trkpt lat="26.175880" lon="127.641180"></trkpt>
      <trkpt lat="26.175950" lon="127.641130"></trkpt>
      <trkpt lat="26.176370" lon="127.640720"></trkpt>
      <trkpt lat="26.176410" lon="127.640690"></trkpt>
      <trkpt lat="26.176440" lon="127.640680"></trkpt>
      <trkpt lat="26.176510" lon="127.640670"></trkpt>
      <trkpt lat="26.176530" lon="127.640680"></trkpt>
      <trkpt lat="26.176550" lon="127.640680"></trkpt>
      <trkpt lat="26.176620" lon="127.640730"></trkpt>
      <trkpt lat="26.176640" lon="127.640750"></trkpt>
      <trkpt lat="26.176670" lon="127.640790"></trkpt>
      <trkpt lat="26.176670" lon="127.640800"></trkpt>
      <trkpt lat="26.176730" lon="127.640880"></trkpt>
      <trkpt lat="26.176760" lon="127.640940"></trkpt>
      <trkpt lat="26.176770" lon="127.640980"></trkpt>
      <trkpt lat="26.176780" lon="127.640990"></trkpt>
      <trkpt lat="26.176780" lon="127.641070"></trkpt>
      <trkpt lat="26.176760" lon="127.641150"></trkpt>
      <trkpt lat="26.176760" lon="127.641160"></trkpt>
      <trkpt lat="26.176730" lon="127.641220"></trkpt>
      <trkpt lat="26.176680" lon="127.641300"></trkpt>
      <trkpt lat="26.176670" lon="127.641330"></trkpt>
      <trkpt lat="26.176570" lon="127.641460"></trkpt>
      <trkpt lat="26.176500" lon="127.641620"></trkpt>
      <trkpt lat="26.176470" lon="127.641660"></trkpt>
      <trkpt lat="26.176410" lon="127.641770"></trkpt>
      <trkpt lat="26.175790" lon="127.642460"></trkpt>
      <trkpt lat="26.175550" lon="127.642690"></trkpt>
      <trkpt lat="26.175360" lon="127.642810"></trkpt>
      <trkpt lat="26.175210" lon="127.642890"></trkpt>
      <trkpt lat="26.175120" lon="127.642950"></trkpt>
      <trkpt lat="26.174960" lon="127.643030"></trkpt>
      <trkpt lat="26.174890" lon="127.643050"></trkpt>
      <trkpt lat="26.174840" lon="127.643080"></trkpt>
      <trkpt lat="26.174790" lon="127.643120"></trkpt>
      <trkpt lat="26.174720" lon="127.643200"></trkpt>
      <trkpt lat="26.174510" lon="127.643510"></trkpt>
      <trkpt lat="26.174490" lon="127.643560"></trkpt>
      <trkpt lat="26.174460" lon="127.643590"></trkpt>
      <trkpt lat="26.174430" lon="127.643670"></trkpt>
      <trkpt lat="26.174410" lon="127.643710"></trkpt>
      <trkpt lat="26.174400" lon="127.643740"></trkpt>
      <trkpt lat="26.174400" lon="127.643820"></trkpt>
      <trkpt lat="26.174420" lon="127.643870"></trkpt>
      <trkpt lat="26.174420" lon="127.643890"></trkpt>
      <trkpt lat="26.174440" lon="127.643900"></trkpt>
      <trkpt lat="26.174450" lon="127.643920"></trkpt>
      <trkpt lat="26.174470" lon="127.643940"></trkpt>
      <trkpt lat="26.174490" lon="127.643940"></trkpt>
      <trkpt lat="26.174510" lon="127.643960"></trkpt>
      <trkpt lat="26.174610" lon="127.643960"></trkpt>
      <trkpt lat="26.174620" lon="127.643950"></trkpt>
      <trkpt lat="26.174650" lon="127.643950"></trkpt>
      <trkpt lat="26.174660" lon="127.643940"></trkpt>
      <trkpt lat="26.174680" lon="127.643930"></trkpt>
      <trkpt lat="26.174690" lon="127.643920"></trkpt>
      <trkpt lat="26.174710" lon="127.643910"></trkpt>
      <trkpt lat="26.174750" lon="127.643870"></trkpt>
      <trkpt lat="26.174760" lon="127.643870"></trkpt>
      <trkpt lat="26.175150" lon="127.643480"></trkpt>
      <trkpt lat="26.175190" lon="127.643450"></trkpt>
      <trkpt lat="26.175240" lon="127.643420"></trkpt>
      <trkpt lat="26.175250" lon="127.643410"></trkpt>
      <trkpt lat="26.175260" lon="127.643410"></trkpt>
      <trkpt lat="26.175300" lon="127.643390"></trkpt>
      <trkpt lat="26.175310" lon="127.643380"></trkpt>
      <trkpt lat="26.175330" lon="127.643380"></trkpt>
      <trkpt lat="26.175340" lon="127.643370"></trkpt>
      <trkpt lat="26.175360" lon="127.643370"></trkpt>
      <trkpt lat="26.175380" lon="127.643360"></trkpt>
      <trkpt lat="26.175440" lon="127.643360"></trkpt>
      <trkpt lat="26.175460" lon="127.643370"></trkpt>
      <trkpt lat="26.175480" lon="127.643370"></trkpt>
      <trkpt lat="26.175510" lon="127.643380"></trkpt>
      <trkpt lat="26.175520" lon="127.643380"></trkpt>
      <trkpt lat="26.175540" lon="127.643390"></trkpt>
      <trkpt lat="26.175550" lon="127.643400"></trkpt>
      <trkpt lat="26.175590" lon="127.643420"></trkpt>
      <trkpt lat="26.175680" lon="127.643520"></trkpt>
      <trkpt lat="26.175730" lon="127.643590"></trkpt>
      <trkpt lat="26.175420" lon="127.643880"></trkpt>
      <trkpt lat="26.175380" lon="127.643910"></trkpt>
      <trkpt lat="26.175340" lon="127.643960"></trkpt>
      <trkpt lat="26.175290" lon="127.644010"></trkpt>
      <trkpt lat="26.175210" lon="127.644130"></trkpt>
      <trkpt lat="26.175210" lon="127.644140"></trkpt>
      <trkpt lat="26.175170" lon="127.644200"></trkpt>
      <trkpt lat="26.175150" lon="127.644240"></trkpt>
      <trkpt lat="26.175130" lon="127.644270"></trkpt>
      <trkpt lat="26.175120" lon="127.644320"></trkpt>
      <trkpt lat="26.175100" lon="127.644350"></trkpt>
      <trkpt lat="26.175080" lon="127.644410"></trkpt>
      <trkpt lat="26.175020" lon="127.644730"></trkpt>
      <trkpt lat="26.175020" lon="127.645030"></trkpt>
      <trkpt lat="26.175010" lon="127.645140"></trkpt>
      <trkpt lat="26.175020" lon="127.645610"></trkpt>
      <trkpt lat="26.175170" lon="127.647320"></trkpt>
      <trkpt lat="26.175200" lon="127.649070"></trkpt>
      <trkpt lat="26.175230" lon="127.649570"></trkpt>
      <trkpt lat="26.175230" lon="127.649660"></trkpt>
      <trkpt lat="26.175400" lon="127.652130"></trkpt>
      <trkpt lat="26.175420" lon="127.652200"></trkpt>
      <trkpt lat="26.175490" lon="127.652890"></trkpt>
      <trkpt lat="26.176550" lon="127.653160"></trkpt>
      <trkpt lat="26.176610" lon="127.653180"></trkpt>
      <trkpt lat="26.176790" lon="127.653210"></trkpt>
      <trkpt lat="26.176950" lon="127.653260"></trkpt>
      <trkpt lat="26.177320" lon="127.653410"></trkpt>
      <trkpt lat="26.177580" lon="127.653500"></trkpt>
      <trkpt lat="26.178330" lon="127.653810"></trkpt>
      <trkpt lat="26.178530" lon="127.653920"></trkpt>
      <trkpt lat="26.178590" lon="127.653970"></trkpt>
      <trkpt lat="26.178730" lon="127.654120"></trkpt>
      <trkpt lat="26.178800" lon="127.654180"></trkpt>
      <trkpt lat="26.179010" lon="127.654320"></trkpt>
      <trkpt lat="26.179550" lon="127.654630"></trkpt>
      <trkpt lat="26.179860" lon="127.654780"></trkpt>
      <trkpt lat="26.180240" lon="127.654930"></trkpt>
      <trkpt lat="26.180600" lon="127.655030"></trkpt>
      <trkpt lat="26.181000" lon="127.655110"></trkpt>
      <trkpt lat="26.181550" lon="127.655190"></trkpt>
      <trkpt lat="26.184550" lon="127.655710"></trkpt>
      <trkpt lat="26.184900" lon="127.655760"></trkpt>
      <trkpt lat="26.184930" lon="127.655760"></trkpt>
      <trkpt lat="26.185860" lon="127.655900"></trkpt>
      <trkpt lat="26.186330" lon="127.656010"></trkpt>
      <trkpt lat="26.186510" lon="127.656080"></trkpt>
      <trkpt lat="26.186610" lon="127.656110"></trkpt>
      <trkpt lat="26.186920" lon="127.656230"></trkpt>
      <trkpt lat="26.187040" lon="127.656290"></trkpt>
      <trkpt lat="26.187150" lon="127.656310"></trkpt>
      <trkpt lat="26.187290" lon="127.656380"></trkpt>
      <trkpt lat="26.187850" lon="127.656720"></trkpt>
      <trkpt lat="26.188340" lon="127.657110"></trkpt>
      <trkpt lat="26.188630" lon="127.657370"></trkpt>
      <trkpt lat="26.188670" lon="127.657400"></trkpt>
      <trkpt lat="26.189510" lon="127.658180"></trkpt>
      <trkpt lat="26.189830" lon="127.658440"></trkpt>
      <trkpt lat="26.190070" lon="127.658600"></trkpt>
      <trkpt lat="26.190140" lon="127.658640"></trkpt>
      <trkpt lat="26.190210" lon="127.658690"></trkpt>
      <trkpt lat="26.190600" lon="127.658880"></trkpt>
      <trkpt lat="26.190990" lon="127.659030"></trkpt>
      <trkpt lat="26.191370" lon="127.659140"></trkpt>
      <trkpt lat="26.191620" lon="127.659190"></trkpt>
      <trkpt lat="26.192100" lon="127.659240"></trkpt>
      <trkpt lat="26.192210" lon="127.659240"></trkpt>
      <trkpt lat="26.192290" lon="127.659250"></trkpt>
      <trkpt lat="26.192410" lon="127.659250"></trkpt>
      <trkpt lat="26.192480" lon="127.659240"></trkpt>
      <trkpt lat="26.192600" lon="127.659240"></trkpt>
      <trkpt lat="26.192690" lon="127.659220"></trkpt>
      <trkpt lat="26.192820" lon="127.659210"></trkpt>
      <trkpt lat="26.193170" lon="127.659150"></trkpt>
      <trkpt lat="26.193860" lon="127.659000"></trkpt>
      <trkpt lat="26.193910" lon="127.658980"></trkpt>
      <trkpt lat="26.194030" lon="127.658950"></trkpt>
      <trkpt lat="26.194380" lon="127.658900"></trkpt>
      <trkpt lat="26.194430" lon="127.658900"></trkpt>
      <trkpt lat="26.194500" lon="127.658890"></trkpt>
      <trkpt lat="26.194570" lon="127.658890"></trkpt>
      <trkpt lat="26.194640" lon="127.658900"></trkpt>
      <trkpt lat="26.194750" lon="127.658900"></trkpt>
      <trkpt lat="26.194820" lon="127.658910"></trkpt>
      <trkpt lat="26.194900" lon="127.658910"></trkpt>
      <trkpt lat="26.194930" lon="127.658920"></trkpt>
      <trkpt lat="26.195170" lon="127.658960"></trkpt>
      <trkpt lat="26.195330" lon="127.659000"></trkpt>
      <trkpt lat="26.195660" lon="127.659130"></trkpt>
      <trkpt lat="26.195980" lon="127.659310"></trkpt>
      <trkpt lat="26.196270" lon="127.659510"></trkpt>
      <trkpt lat="26.196870" lon="127.659980"></trkpt>
      <trkpt lat="26.197380" lon="127.660450"></trkpt>
      <trkpt lat="26.197580" lon="127.660610"></trkpt>
      <trkpt lat="26.197700" lon="127.660690"></trkpt>
      <trkpt lat="26.198060" lon="127.660970"></trkpt>
      <trkpt lat="26.198180" lon="127.661040"></trkpt>
      <trkpt lat="26.198250" lon="127.661090"></trkpt>
      <trkpt lat="26.198350" lon="127.661150"></trkpt>
      <trkpt lat="26.198360" lon="127.661160"></trkpt>
      <trkpt lat="26.198510" lon="127.661250"></trkpt>
      <trkpt lat="26.198840" lon="127.661420"></trkpt>
      <trkpt lat="26.198850" lon="127.661420"></trkpt>
      <trkpt lat="26.198930" lon="127.661460"></trkpt>
      <trkpt lat="26.199160" lon="127.661550"></trkpt>
      <trkpt lat="26.199620" lon="127.661690"></trkpt>
      <trkpt lat="26.199860" lon="127.661740"></trkpt>
      <trkpt lat="26.199880" lon="127.661740"></trkpt>
      <trkpt lat="26.200350" lon="127.661810"></trkpt>
      <trkpt lat="26.200920" lon="127.661850"></trkpt>
      <trkpt lat="26.200960" lon="127.661860"></trkpt>
      <trkpt lat="26.201470" lon="127.661890"></trkpt>
      <trkpt lat="26.201970" lon="127.661950"></trkpt>
      <trkpt lat="26.202020" lon="127.661950"></trkpt>
      <trkpt lat="26.202050" lon="127.661960"></trkpt>
      <trkpt lat="26.202440" lon="127.662010"></trkpt>
      <trkpt lat="26.202690" lon="127.662060"></trkpt>
      <trkpt lat="26.203370" lon="127.662270"></trkpt>
      <trkpt lat="26.204040" lon="127.662530"></trkpt>
      <trkpt lat="26.204400" lon="127.662720"></trkpt>
      <trkpt lat="26.204770" lon="127.662960"></trkpt>
      <trkpt lat="26.204920" lon="127.663070"></trkpt>
      <trkpt lat="26.205130" lon="127.663270"></trkpt>
      <trkpt lat="26.205190" lon="127.663320"></trkpt>
      <trkpt lat="26.205250" lon="127.663380"></trkpt>
      <trkpt lat="26.205420" lon="127.663590"></trkpt>
      <trkpt lat="26.205460" lon="127.663660"></trkpt>
      <trkpt lat="26.205510" lon="127.663730"></trkpt>
      <trkpt lat="26.205540" lon="127.663790"></trkpt>
      <trkpt lat="26.205550" lon="127.663800"></trkpt>
      <trkpt lat="26.205570" lon="127.663830"></trkpt>
      <trkpt lat="26.205620" lon="127.663940"></trkpt>
      <trkpt lat="26.205670" lon="127.664030"></trkpt>
      <trkpt lat="26.205710" lon="127.664130"></trkpt>
      <trkpt lat="26.205730" lon="127.664200"></trkpt>
      <trkpt lat="26.205800" lon="127.664380"></trkpt>
      <trkpt lat="26.205800" lon="127.664400"></trkpt>
      <trkpt lat="26.205830" lon="127.664500"></trkpt>
      <trkpt lat="26.205840" lon="127.664520"></trkpt>
      <trkpt lat="26.205860" lon="127.664610"></trkpt>
      <trkpt lat="26.205910" lon="127.664970"></trkpt>
      <trkpt lat="26.205910" lon="127.665050"></trkpt>
      <trkpt lat="26.205920" lon="127.665120"></trkpt>
      <trkpt lat="26.205920" lon="127.665250"></trkpt>
      <trkpt lat="26.205910" lon="127.665290"></trkpt>
      <trkpt lat="26.205910" lon="127.665410"></trkpt>
      <trkpt lat="26.205870" lon="127.665720"></trkpt>
      <trkpt lat="26.205790" lon="127.666040"></trkpt>
      <trkpt lat="26.205670" lon="127.666360"></trkpt>
      <trkpt lat="26.205300" lon="127.667140"></trkpt>
      <trkpt lat="26.205220" lon="127.667280"></trkpt>
      <trkpt lat="26.205080" lon="127.667590"></trkpt>
      <trkpt lat="26.205010" lon="127.667720"></trkpt>
      <trkpt lat="26.204640" lon="127.668500"></trkpt>
      <trkpt lat="26.204630" lon="127.668540"></trkpt>
      <trkpt lat="26.204630" lon="127.668610"></trkpt>
      <trkpt lat="26.204520" lon="127.668920"></trkpt>
      <trkpt lat="26.204480" lon="127.669060"></trkpt>
      <trkpt lat="26.204470" lon="127.669080"></trkpt>
      <trkpt lat="26.204330" lon="127.669710"></trkpt>
      <trkpt lat="26.204290" lon="127.670110"></trkpt>
      <trkpt lat="26.204300" lon="127.670650"></trkpt>
      <trkpt lat="26.204320" lon="127.670810"></trkpt>
      <trkpt lat="26.204410" lon="127.671230"></trkpt>
      <trkpt lat="26.204490" lon="127.671510"></trkpt>
      <trkpt lat="26.204500" lon="127.671520"></trkpt>
      <trkpt lat="26.204530" lon="127.671630"></trkpt>
      <trkpt lat="26.204610" lon="127.671840"></trkpt>
      <trkpt lat="26.204660" lon="127.671930"></trkpt>
      <trkpt lat="26.204750" lon="127.672130"></trkpt>
      <trkpt lat="26.204790" lon="127.672200"></trkpt>
      <trkpt lat="26.204800" lon="127.672210"></trkpt>
      <trkpt lat="26.204800" lon="127.672220"></trkpt>
      <trkpt lat="26.204910" lon="127.672410"></trkpt>
      <trkpt lat="26.205050" lon="127.672620"></trkpt>
      <trkpt lat="26.205210" lon="127.672820"></trkpt>
      <trkpt lat="26.205470" lon="127.673100"></trkpt>
      <trkpt lat="26.205680" lon="127.673290"></trkpt>
      <trkpt lat="26.205990" lon="127.673530"></trkpt>
      <trkpt lat="26.206310" lon="127.673730"></trkpt>
      <trkpt lat="26.206430" lon="127.673790"></trkpt>
      <trkpt lat="26.206530" lon="127.673850"></trkpt>
      <trkpt lat="26.206680" lon="127.673910"></trkpt>
      <trkpt lat="26.207010" lon="127.674070"></trkpt>
      <trkpt lat="26.207170" lon="127.674130"></trkpt>
      <trkpt lat="26.207370" lon="127.674190"></trkpt>
      <trkpt lat="26.207450" lon="127.674220"></trkpt>
      <trkpt lat="26.207650" lon="127.674270"></trkpt>
      <trkpt lat="26.207810" lon="127.674320"></trkpt>
      <trkpt lat="26.208200" lon="127.674410"></trkpt>
      <trkpt lat="26.208340" lon="127.674450"></trkpt>
      <trkpt lat="26.208550" lon="127.674490"></trkpt>
      <trkpt lat="26.209270" lon="127.674660"></trkpt>
      <trkpt lat="26.209960" lon="127.674780"></trkpt>
      <trkpt lat="26.211160" lon="127.675060"></trkpt>
      <trkpt lat="26.211370" lon="127.675120"></trkpt>
      <trkpt lat="26.211500" lon="127.675140"></trkpt>
      <trkpt lat="26.212210" lon="127.675300"></trkpt>
      <trkpt lat="26.212810" lon="127.675470"></trkpt>
      <trkpt lat="26.213090" lon="127.675580"></trkpt>
      <trkpt lat="26.213400" lon="127.675750"></trkpt>
      <trkpt lat="26.213610" lon="127.675890"></trkpt>
      <trkpt lat="26.213710" lon="127.675980"></trkpt>
      <trkpt lat="26.213660" lon="127.676110"></trkpt>
      <trkpt lat="26.213640" lon="127.676240"></trkpt>
      <trkpt lat="26.213330" lon="127.677480"></trkpt>
      <trkpt lat="26.213480" lon="127.677530"></trkpt>
    </trkseg>
  </trk>
</gpx>
